[{"OBJECT_NAME":"SAPPHIRE","OBJECT_ID":"2013-009C","EPOCH":"2026-03-14T11:42:56.305152","MEAN_MOTION":14.35211486,"ECCENTRICITY":0.00114961,"INCLINATION":98.4226,"RA_OF_ASC_NODE":255.1998,"ARG_OF_PERICENTER":165.491,"MEAN_ANOMALY":194.6608,"EPHEMERIS_TYPE":0,"CLASSIFICATION_TYPE":"U","NORAD_CAT_ID":39088,"ELEMENT_SET_NO":999,"REV_AT_EPOCH":68299,"BSTAR":8.6042647e-5,"MEAN_MOTION_DOT":2.03e-6,"MEAN_MOTION_DDOT":0},{"OBJECT_NAME":"PRAETORIAN SDA_602","OBJECT_ID":"2025-203A","EPOCH":"2026-03-14T13:25:10.130592","MEAN_MOTION":13.84330204,"ECCENTRICITY":0.00072721,"INCLINATION":81.2995,"RA_OF_ASC_NODE":98.4269,"ARG_OF_PERICENTER":90.7209,"MEAN_ANOMALY":269.4781,"EPHEMERIS_TYPE":0,"CLASSIFICATION_TYPE":"U","NORAD_CAT_ID":65565,"ELEMENT_SET_NO":999,"REV_AT_EPOCH":2560,"BSTAR":0.00024022408,"MEAN_MOTION_DOT":2.8e-6,"MEAN_MOTION_DDOT":0},{"OBJECT_NAME":"PRAETORIAN SDA_603","OBJECT_ID":"2025-203B","EPOCH":"2026-03-14T13:20:40.759584","MEAN_MOTION":13.83902272,"ECCENTRICITY":0.00109571,"INCLINATION":81.3002,"RA_OF_ASC_NODE":98.2783,"ARG_OF_PERICENTER":90.2597,"MEAN_ANOMALY":269.9815,"EPHEMERIS_TYPE":0,"CLASSIFICATION_TYPE":"U","NORAD_CAT_ID":65566,"ELEMENT_SET_NO":999,"REV_AT_EPOCH":2561,"BSTAR":0.00025875736,"MEAN_MOTION_DOT":2.99e-6,"MEAN_MOTION_DDOT":0},{"OBJECT_NAME":"PRAETORIAN SDA_604","OBJECT_ID":"2025-203C","EPOCH":"2026-03-14T12:24:22.197312","MEAN_MOTION":13.83034904,"ECCENTRICITY":0.00068298,"INCLINATION":81.3015,"RA_OF_ASC_NODE":98.5817,"ARG_OF_PERICENTER":97.0026,"MEAN_ANOMALY":263.1907,"EPHEMERIS_TYPE":0,"CLASSIFICATION_TYPE":"U","NORAD_CAT_ID":65567,"ELEMENT_SET_NO":999,"REV_AT_EPOCH":2559,"BSTAR":7.1639796e-5,"MEAN_MOTION_DOT":9.0e-7,"MEAN_MOTION_DDOT":0},{"OBJECT_NAME":"PRAETORIAN SDA_605","OBJECT_ID":"2025-203D","EPOCH":"2026-03-14T13:58:57.517824","MEAN_MOTION":13.83529529,"ECCENTRICITY":0.00095455,"INCLINATION":81.298,"RA_OF_ASC_NODE":98.2798,"ARG_OF_PERICENTER":86.5255,"MEAN_ANOMALY":273.6992,"EPHEMERIS_TYPE":0,"CLASSIFICATION_TYPE":"U","NORAD_CAT_ID":65568,"ELEMENT_SET_NO":999,"REV_AT_EPOCH":2561,"BSTAR":6.9949454e-5,"MEAN_MOTION_DOT":8.9e-7,"MEAN_MOTION_DDOT":0},{"OBJECT_NAME":"PRAETORIAN SDA_606","OBJECT_ID":"2025-203E","EPOCH":"2026-03-14T13:38:08.468448","MEAN_MOTION":13.83528946,"ECCENTRICITY":0.00071447,"INCLINATION":81.3018,"RA_OF_ASC_NODE":98.4845,"ARG_OF_PERICENTER":88.6475,"MEAN_ANOMALY":271.55,"EPHEMERIS_TYPE":0,"CLASSIFICATION_TYPE":"U","NORAD_CAT_ID":65569,"ELEMENT_SET_NO":999,"REV_AT_EPOCH":2560,"BSTAR":0.00025457541,"MEAN_MOTION_DOT":2.92e-6,"MEAN_MOTION_DDOT":0},{"OBJECT_NAME":"PRAETORIAN SDA_607","OBJECT_ID":"2025-203F","EPOCH":"2026-03-14T13:26:57.531840","MEAN_MOTION":13.84465797,"ECCENTRICITY":0.0010147,"INCLINATION":81.3,"RA_OF_ASC_NODE":98.2932,"ARG_OF_PERICENTER":89.2627,"MEAN_ANOMALY":270.9693,"EPHEMERIS_TYPE":0,"CLASSIFICATION_TYPE":"U","NORAD_CAT_ID":65570,"ELEMENT_SET_NO":999,"REV_AT_EPOCH":2561,"BSTAR":0.00018235474,"MEAN_MOTION_DOT":2.16e-6,"MEAN_MOTION_DDOT":0},{"OBJECT_NAME":"PRAETORIAN SDA_608","OBJECT_ID":"2025-203G","EPOCH":"2026-03-14T13:51:23.017536","MEAN_MOTION":13.83887551,"ECCENTRICITY":0.00072702,"INCLINATION":81.2968,"RA_OF_ASC_NODE":98.4,"ARG_OF_PERICENTER":96.0432,"MEAN_ANOMALY":264.1553,"EPHEMERIS_TYPE":0,"CLASSIFICATION_TYPE":"U","NORAD_CAT_ID":65571,"ELEMENT_SET_NO":999,"REV_AT_EPOCH":2560,"BSTAR":7.1217482e-5,"MEAN_MOTION_DOT":9.1e-7,"MEAN_MOTION_DDOT":0},{"OBJECT_NAME":"PRAETORIAN SDA_609","OBJECT_ID":"2025-203H","EPOCH":"2026-03-14T12:58:46.165440","MEAN_MOTION":13.84314833,"ECCENTRICITY":0.00082474,"INCLINATION":81.3014,"RA_OF_ASC_NODE":98.4405,"ARG_OF_PERICENTER":89.9567,"MEAN_ANOMALY":270.2535,"EPHEMERIS_TYPE":0,"CLASSIFICATION_TYPE":"U","NORAD_CAT_ID":65572,"ELEMENT_SET_NO":999,"REV_AT_EPOCH":2560,"BSTAR":0.00026375676,"MEAN_MOTION_DOT":3.07e-6,"MEAN_MOTION_DDOT":0},{"OBJECT_NAME":"PRAETORIAN SDA_610","OBJECT_ID":"2025-203J","EPOCH":"2026-03-13T11:25:56.700480","MEAN_MOTION":13.84011663,"ECCENTRICITY":0.00078517,"INCLINATION":81.2971,"RA_OF_ASC_NODE":99.3847,"ARG_OF_PERICENTER":94.0979,"MEAN_ANOMALY":266.1075,"EPHEMERIS_TYPE":0,"CLASSIFICATION_TYPE":"U","NORAD_CAT_ID":65573,"ELEMENT_SET_NO":999,"REV_AT_EPOCH":2545,"BSTAR":5.8653223e-5,"MEAN_MOTION_DOT":7.7e-7,"MEAN_MOTION_DDOT":0},{"OBJECT_NAME":"PRAETORIAN SDA_611","OBJECT_ID":"2025-203K","EPOCH":"2026-03-14T14:14:27.354624","MEAN_MOTION":13.83296713,"ECCENTRICITY":0.00069482,"INCLINATION":81.2972,"RA_OF_ASC_NODE":98.4309,"ARG_OF_PERICENTER":99.3123,"MEAN_ANOMALY":260.8819,"EPHEMERIS_TYPE":0,"CLASSIFICATION_TYPE":"U","NORAD_CAT_ID":65574,"ELEMENT_SET_NO":999,"REV_AT_EPOCH":2560,"BSTAR":0.00026502385,"MEAN_MOTION_DOT":3.03e-6,"MEAN_MOTION_DDOT":0},{"OBJECT_NAME":"PRAETORIAN SDA_612","OBJECT_ID":"2025-203L","EPOCH":"2026-03-14T13:21:22.947840","MEAN_MOTION":13.85024811,"ECCENTRICITY":0.00106031,"INCLINATION":81.2996,"RA_OF_ASC_NODE":98.2826,"ARG_OF_PERICENTER":90.3522,"MEAN_ANOMALY":269.885,"EPHEMERIS_TYPE":0,"CLASSIFICATION_TYPE":"U","NORAD_CAT_ID":65575,"ELEMENT_SET_NO":999,"REV_AT_EPOCH":2561,"BSTAR":0.00025784267,"MEAN_MOTION_DOT":3.04e-6,"MEAN_MOTION_DDOT":0},{"OBJECT_NAME":"PRAETORIAN SDA_613","OBJECT_ID":"2025-203M","EPOCH":"2026-03-14T11:59:52.389024","MEAN_MOTION":13.82988001,"ECCENTRICITY":0.00071067,"INCLINATION":81.296,"RA_OF_ASC_NODE":98.4594,"ARG_OF_PERICENTER":91.9754,"MEAN_ANOMALY":268.2216,"EPHEMERIS_TYPE":0,"CLASSIFICATION_TYPE":"U","NORAD_CAT_ID":65576,"ELEMENT_SET_NO":999,"REV_AT_EPOCH":2559,"BSTAR":0.00026346812,"MEAN_MOTION_DOT":3.0e-6,"MEAN_MOTION_DDOT":0},{"OBJECT_NAME":"PRAETORIAN SDA_614","OBJECT_ID":"2025-203N","EPOCH":"2026-03-14T12:40:14.680416","MEAN_MOTION":13.84766102,"ECCENTRICITY":0.00084355,"INCLINATION":81.2976,"RA_OF_ASC_NODE":98.3639,"ARG_OF_PERICENTER":89.3074,"MEAN_ANOMALY":270.905,"EPHEMERIS_TYPE":0,"CLASSIFICATION_TYPE":"U","NORAD_CAT_ID":65577,"ELEMENT_SET_NO":999,"REV_AT_EPOCH":2561,"BSTAR":5.1935155e-5,"MEAN_MOTION_DOT":7.0e-7,"MEAN_MOTION_DDOT":0},{"OBJECT_NAME":"PRAETORIAN SDA_615","OBJECT_ID":"2025-203P","EPOCH":"2026-03-14T13:17:19.003488","MEAN_MOTION":13.84422843,"ECCENTRICITY":0.00103391,"INCLINATION":81.2987,"RA_OF_ASC_NODE":98.244,"ARG_OF_PERICENTER":89.0027,"MEAN_ANOMALY":271.2314,"EPHEMERIS_TYPE":0,"CLASSIFICATION_TYPE":"U","NORAD_CAT_ID":65578,"ELEMENT_SET_NO":999,"REV_AT_EPOCH":2561,"BSTAR":0.00021952118,"MEAN_MOTION_DOT":2.58e-6,"MEAN_MOTION_DDOT":0},{"OBJECT_NAME":"PRAETORIAN SDA_616","OBJECT_ID":"2025-203Q","EPOCH":"2026-03-14T14:13:18.579360","MEAN_MOTION":13.83312154,"ECCENTRICITY":0.00067275,"INCLINATION":81.3024,"RA_OF_ASC_NODE":98.5189,"ARG_OF_PERICENTER":98.6047,"MEAN_ANOMALY":261.5871,"EPHEMERIS_TYPE":0,"CLASSIFICATION_TYPE":"U","NORAD_CAT_ID":65579,"ELEMENT_SET_NO":999,"REV_AT_EPOCH":2560,"BSTAR":0.00024806766,"MEAN_MOTION_DOT":2.84e-6,"MEAN_MOTION_DDOT":0}]
