SAPPHIRE                
1 39088U 13009C   26073.48815168  .00000203  00000+0  86043-4 0  9999
2 39088  98.4226 255.1998 0011496 165.4910 194.6608 14.35211486682990
PRAETORIAN SDA_602      
1 65565U 25203A   26073.55914503  .00000280  00000+0  24022-3 0  9991
2 65565  81.2995  98.4269 0007272  90.7209 269.4781 13.84330204 25604
PRAETORIAN SDA_603      
1 65566U 25203B   26073.55602731  .00000299  00000+0  25876-3 0  9997
2 65566  81.3002  98.2783 0010957  90.2597 269.9815 13.83902272 25616
PRAETORIAN SDA_604      
1 65567U 25203C   26073.51692358  .00000090  00000+0  71640-4 0  9998
2 65567  81.3015  98.5817 0006829  97.0026 263.1907 13.83034904 25590
PRAETORIAN SDA_605      
1 65568U 25203D   26073.58261016  .00000089  00000+0  69949-4 0  9996
2 65568  81.2980  98.2798 0009545  86.5255 273.6992 13.83529529 25616
PRAETORIAN SDA_606      
1 65569U 25203E   26073.56815357  .00000292  00000+0  25458-3 0  9990
2 65569  81.3018  98.4845 0007144  88.6475 271.5500 13.83528946 25608
PRAETORIAN SDA_607      
1 65570U 25203F   26073.56038810  .00000216  00000+0  18235-3 0  9994
2 65570  81.3000  98.2932 0010147  89.2627 270.9693 13.84465797 25611
PRAETORIAN SDA_608      
1 65571U 25203G   26073.57734974  .00000091  00000+0  71217-4 0  9991
2 65571  81.2968  98.4000 0007270  96.0432 264.1553 13.83887551 25609
PRAETORIAN SDA_609      
1 65572U 25203H   26073.54081210  .00000307  00000+0  26376-3 0  9992
2 65572  81.3014  98.4405 0008247  89.9567 270.2535 13.84314833 25604
PRAETORIAN SDA_610      
1 65573U 25203J   26072.47635070  .00000077  00000+0  58653-4 0  9991
2 65573  81.2971  99.3847 0007851  94.0979 266.1075 13.84011663 25451
PRAETORIAN SDA_611      
1 65574U 25203K   26073.59337216  .00000303  00000+0  26502-3 0  9996
2 65574  81.2972  98.4309 0006948  99.3123 260.8819 13.83296713 25605
PRAETORIAN SDA_612      
1 65575U 25203L   26073.55651560  .00000304  00000+0  25784-3 0  9996
2 65575  81.2996  98.2826 0010603  90.3522 269.8850 13.85024811 25616
PRAETORIAN SDA_613      
1 65576U 25203M   26073.49991191  .00000300  00000+0  26347-3 0  9999
2 65576  81.2960  98.4594 0007106  91.9754 268.2216 13.82988001 25593
PRAETORIAN SDA_614      
1 65577U 25203N   26073.52794769  .00000070  00000+0  51935-4 0  9992
2 65577  81.2976  98.3639 0008435  89.3074 270.9050 13.84766102 25619
PRAETORIAN SDA_615      
1 65578U 25203P   26073.55369217  .00000258  00000+0  21952-3 0  9995
2 65578  81.2987  98.2440 0010339  89.0027 271.2314 13.84422843 25610
PRAETORIAN SDA_616      
1 65579U 25203Q   26073.59257615  .00000284  00000+0  24807-3 0  9999
2 65579  81.3024  98.5189 0006727  98.6047 261.5871 13.83312154 25602
